#aV2023 10 20  0  0  0.00000000     288 DD+AD WGS84 FIT  NGA
## 2284 432000.00000000   300.00000000 60237 0.0000000000000
+   32     1  2  3  4  5  6  7  8  9 10 11 12 13 14 15 16 17
+         18 19 20 21 22 23 24 25 26 27 28 29 30 31 32  0  0
+          0  0  0  0  0  0  0  0  0  0  0  0  0  0  0  0  0
+          0  0  0  0  0  0  0  0  0  0  0  0  0  0  0  0  0
+          0  0  0  0  0  0  0  0  0  0  0  0  0  0  0  0  0
++         2  2  2  2  2  2  2  2  2  2  2  2  2  2  2  2  2
++         2  2  2  2  2  2  2  2  2  2  2  2  2  2  2  0  0
++         0  0  0  0  0  0  0  0  0  0  0  0  0  0  0  0  0
++         0  0  0  0  0  0  0  0  0  0  0  0  0  0  0  0  0
++         0  0  0  0  0  0  0  0  0  0  0  0  0  0  0  0  0
%c cc cc ccc ccc cccc cccc cccc cccc ccccc ccccc ccccc ccccc
%c cc cc ccc ccc cccc cccc cccc cccc ccccc ccccc ccccc ccccc
%f  0.0000000  0.000000000  0.00000000000  0.000000000000000
%f  0.0000000  0.000000000  0.00000000000  0.000000000000000
%i    0    0    0    0      0      0      0      0         0
%i    0    0    0    0      0      0      0      0         0
/*      NGA, ST. LOUIS,MO.                                  
/*   EPHEMERIS COMPUTED FROM 2 DAYS OF DATA                 
/*   EPOCHA v8 SMOOTHER                                     
/*   G2139 IERS2010 SATIGS SATAPC                           
*  2023 10 20 23  0  0.00000000
P  1  -7342.867832 -13807.066274 -21864.769450    163.533269                    
V  1  26712.030566  -2286.615350  -7319.352745     -0.003360                    
P  2   -252.160818 -14953.087314 -21436.680328   -539.499555                    
V  2  28031.046265  -4701.554063   3062.852752      0.048050                    
P  3 -11524.832859 -23238.002779  -6113.244296    -66.557213                    
V  3   5981.424976   4988.664236 -30877.318865      0.234911                    
P  4  -2684.194470 -20509.361837  16595.796595    190.138061                    
V  4  11061.850600 -18069.119087 -20673.259757      0.107398                    
P  5    592.449443  19964.559598  17279.998298   -147.271587                    
V  5 -15129.299158 -16488.782193  19456.722292     -0.014549                    
P  6 -25221.512903   6091.580972   5977.290263    526.021065                    
V  6  -7581.053377  -1094.679048 -31131.073636     -0.087036                    
P  7 -22757.322317  -6974.834054  12741.910428     35.034631                    
V  7  15006.391734  -3519.953716  25373.242989     -0.101339                    
P  8   3828.856647 -24667.524287  -8527.646412   -148.126660                    
V  8   6997.834946  -8828.984672  29338.249717     -0.018134                    
P  9 -10877.310924 -12073.207635  20912.341724    -26.689938                    
V  9  11259.679172 -24311.000154  -8198.200464      0.108712                    
P 10  18187.679905   3597.656629 -18960.391340    -58.141138                    
V 10  13350.058613  20329.866802  16183.285627     -0.015191                    
P 11 -17050.082573  12117.579979  16353.630524   -424.199224                    
V 11 -20802.591207   -806.669820 -21164.304649     -0.171252                    
P 12   8057.558080  24059.319702  -8258.075918   -438.089312                    
V 12  -7322.289905  -7339.019041 -29438.046531     -0.041920                    
P 13 -13161.716859  22884.242039  -1713.792672    586.277441                    
V 13  -3317.530944    196.339350  32003.423998      0.042813                    
P 14 -19323.050428  -6957.714265 -16910.653561    219.849045                    
V 14 -10400.875660 -18903.019661  19464.540470      0.110215                    
P 15    252.770423  24813.231979  -9634.152700     89.081694                    
V 15  -6481.994896  10279.490258  27942.063048      0.037431                    
P 16   6255.174579 -16224.044015  19628.379662   -435.854205                    
V 16  14309.774011  21444.994664  13404.346243      0.061969                    
P 17 -17202.929675   4134.357163 -19411.173914    723.792972                    
V 17  10979.727946 -23079.714823 -14208.985504     -0.001260                    
P 18  23768.219962   5461.319806  10749.882285   -454.944437                    
V 18 -13362.385983   2990.841191  27867.765165     -0.115781                    
P 19 -18655.328067  11615.995182 -14860.088157    387.717777                    
V 19   7750.392096 -17075.062535 -23719.050763      0.052123                    
P 20  -9421.509121  12359.629295  21590.836122    405.795325                    
V 20 -19563.427224 -19098.247875   2215.770503     -0.019439                    
P 21   3001.983922 -15326.884715 -20826.484048    146.301488                    
V 21  27552.398261  -3997.405386   7642.501820     -0.008938                    
P 22 -16489.036927   -216.638183 -20305.717718     99.126818                    
V 22 -12609.837428 -23762.408860  10540.611622     -0.071451                    
P 23  19777.471234  14682.392767 -10163.926623     85.788269                    
V 23   6218.409255  11397.065277  28360.841202      0.059037                    
P 24   2785.160349  15729.641383 -21605.372421   -351.211412                    
V 24 -26209.383110   4756.864127    510.451186     -0.096756                    
P 25  17433.752255  19939.448638   3102.816907    473.673313                    
V 25    245.724010   5164.127560 -31062.441589      0.017991                    
P 26  13621.159106  -8173.174256  21180.226837    221.975160                    
V 26  17301.819994  21090.082646  -2613.123392     -0.023190                    
P 27  12775.898569 -22738.486321   3380.224989    -58.143642                    
V 27    856.394855   5488.389513  31737.833844     -0.056763                    
P 28  25624.183320  -5942.489825   3664.915433    -29.311200                    
V 28   5001.946325   2122.189672 -31321.087039     -0.072175                    
P 29   9417.490101  12784.657051  21229.567601   -610.140255                    
V 29 -13614.949434  23368.901442  -8117.183864     -0.001609                    
P 30 -26543.940387    169.362109   3044.921787   -476.613701                    
V 30   3387.989104  -3659.420706  30703.904024      0.037562                    
P 31  21543.061360 -10128.618522  12005.078037   -224.873691                    
V 31  15536.413587   1111.724002 -26096.541937     -0.004042                    
P 32  17449.190548  -8602.038264 -17805.228002   -575.380309                    
V 32  -7719.959917  21797.587200 -18116.698824     -0.051250                    
EOF
